[{"OBJECT_NAME":"NESS","OBJECT_ID":"2023-155E","EPOCH":"2026-03-09T18:20:54.923712","MEAN_MOTION":15.26794015,"ECCENTRICITY":0.00068914,"INCLINATION":97.5941,"RA_OF_ASC_NODE":152.6141,"ARG_OF_PERICENTER":179.8776,"MEAN_ANOMALY":180.2465,"EPHEMERIS_TYPE":0,"CLASSIFICATION_TYPE":"U","NORAD_CAT_ID":58020,"ELEMENT_SET_NO":999,"REV_AT_EPOCH":13330,"BSTAR":0.00074047066,"MEAN_MOTION_DOT":0.00019469,"MEAN_MOTION_DDOT":0},{"OBJECT_NAME":"STARLINK-33791","OBJECT_ID":"2025-076AB","EPOCH":"2026-03-09T09:34:36.408864","MEAN_MOTION":15.27573239,"ECCENTRICITY":5.353e-5,"INCLINATION":42.9965,"RA_OF_ASC_NODE":323.5303,"ARG_OF_PERICENTER":14.5372,"MEAN_ANOMALY":345.5495,"EPHEMERIS_TYPE":0,"CLASSIFICATION_TYPE":"U","NORAD_CAT_ID":63594,"ELEMENT_SET_NO":999,"REV_AT_EPOCH":5178,"BSTAR":0.0013368619,"MEAN_MOTION_DOT":0.00036701,"MEAN_MOTION_DDOT":0}]
